NORAD_CAT_ID,OBJECT_NAME,OBJECT_TYPE,EPOCH,MEAN_MOTION,ECCENTRICITY,INCLINATION,RA_OF_ASC_NODE,ARG_OF_PERICENTER,MEAN_ANOMALY,BSTAR,MEAN_MOTION_DOT,MEAN_MOTION_DDOT,TLE_LINE0,TLE_LINE1,TLE_LINE2,SEMIMAJOR_AXIS,PERIOD,APOGEE,PERIGEE,DECAYED
55283.0,STARLINK-5317,PAYLOAD,2024-07-08 05:10:17,14.98333312,0.0002964,70.0,141.114,268.9082,91.1738,0.00010198,1.124e-05,0.0,0 STARLINK-5317,1 55283U 23010Q   24190.21547636  .00001124  00000-0  10198-3 0  9999,2 55283  70.0000 141.1140 0002964 268.9082  91.1738 14.98333312 81184,6950.183,96.107,574.108,569.988,0.0
55283.0,STARLINK-5317,PAYLOAD,2024-07-08 06:46:25,14.98334627,0.0002988,70.0,140.9455,269.2592,90.8225,0.00011132,1.236e-05,0.0,0 STARLINK-5317,1 55283U 23010Q   24190.28223512  .00001236  00000-0  11132-3 0  9993,2 55283  70.0000 140.9455 0002988 269.2592  90.8225 14.98334627 81497,6950.179,96.107,574.12,569.967,0.0
55283.0,STARLINK-5317,PAYLOAD,2024-07-08 21:11:38,14.98328823,0.0002916,70.0002,139.4307,269.2097,90.8728,2.8191e-06,-5.9e-07,0.0,0 STARLINK-5317,1 55283U 23010Q   24190.88308181 -.00000059  00000-0  28191-5 0  9993,2 55283  70.0002 139.4307 0002916 269.2097  90.8728 14.98328823 81285,6950.197,96.107,574.088,570.035,0.0
55283.0,STARLINK-5317,PAYLOAD,2024-07-08 22:47:46,14.98328733,0.0002913,70.0002,139.2625,269.1513,90.9312,1.9086e-06,-7e-07,0.0,0 STARLINK-5317,1 55283U 23010Q   24190.94984189 -.00000070  00000-0  19086-5 0  9994,2 55283  70.0002 139.2625 0002913 269.1513  90.9312 14.98328733 81599,6950.197,96.107,574.086,570.037,0.0
55283.0,STARLINK-5317,PAYLOAD,2024-07-09 13:12:58,14.98328809,0.0002833,70.0003,137.7476,269.4407,90.6427,1.7217e-05,1.12e-06,0.0,0 STARLINK-5317,1 55283U 23010Q   24191.55068062  .00000112  00000-0  17217-4 0  9994,2 55283  70.0003 137.7476 0002833 269.4407  90.6427 14.98328809 81681,6950.197,96.107,574.031,570.093,0.0
55283.0,STARLINK-5317,PAYLOAD,2024-07-09 21:13:39,14.98330385,0.0002713,70.0005,136.9061,270.2733,89.8115,-3.339e-05,-4.91e-06,0.0,0 STARLINK-5317,1 55283U 23010Q   24191.88448124 -.00000491  00000-0 -33390-4 0  9993,2 55283  70.0005 136.9061 0002713 270.2733  89.8115 14.98330385 81432,6950.192,96.107,573.942,570.171,0.0
55283.0,STARLINK-5317,PAYLOAD,2024-07-09 22:49:47,14.98330241,0.0002718,70.0005,136.7378,270.2617,89.823,-3.4693e-05,-5.07e-06,0.0,0 STARLINK-5317,1 55283U 23010Q   24191.95124130 -.00000507  00000-0 -34693-4 0  9994,2 55283  70.0005 136.7378 0002718 270.2617  89.8230 14.98330241 81740,6950.192,96.107,573.946,570.168,0.0
55283.0,STARLINK-5317,PAYLOAD,2024-07-10 13:14:59,14.98331958,0.000273,70.0006,135.2225,269.4009,90.6837,-4.1766e-05,-5.91e-06,0.0,0 STARLINK-5317,1 55283U 23010Q   24192.55207957 -.00000591  00000-0 -41766-4 0  9992,2 55283  70.0006 135.2225 0002730 269.4009  90.6837 14.98331958 81834,6950.187,96.107,573.949,570.154,0.0
55283.0,STARLINK-5317,PAYLOAD,2024-07-10 21:15:39,14.98331441,0.0002753,70.0001,134.3814,268.371,91.7134,1.6591e-05,1.05e-06,0.0,0 STARLINK-5317,1 55283U 23010Q   24192.88587850  .00000105  00000-0  16591-4 0  9998,2 55283  70.0001 134.3814 0002753 268.3710  91.7134 14.98331441 81586,6950.188,96.107,573.967,570.14,0.0
55283.0,STARLINK-5317,PAYLOAD,2024-07-10 22:51:47,14.98330454,0.0002644,70.0005,134.2127,267.0925,92.9932,4.6955e-05,4.67e-06,0.0,0 STARLINK-5317,1 55283U 23010Q   24192.95263818  .00000467  00000-0  46955-4 0  9999,2 55283  70.0005 134.2127 0002644 267.0925  92.9932 14.98330454 81895,6950.191,96.107,573.894,570.219,0.0
55283.0,STARLINK-5317,PAYLOAD,2024-07-11 05:16:20,14.98333725,0.0002714,70.0004,133.5398,267.9612,92.1236,4.0624e-05,3.92e-06,0.0,0 STARLINK-5317,1 55283U 23010Q   24193.21967606  .00000392  00000-0  40624-4 0  9999,2 55283  70.0004 133.5398 0002714 267.9612  92.1236 14.98333725 81934,6950.181,96.107,573.933,570.16,0.0
55283.0,STARLINK-5317,PAYLOAD,2024-07-12 05:18:21,14.98327256,0.0002552,70.0008,131.0147,265.9162,94.1706,1.9348e-05,1.38e-06,0.0,0 STARLINK-5317,1 55283U 23010Q   24194.22108164  .00000138  00000-0  19348-4 0  9994,2 55283  70.0008 131.0147 0002552 265.9162  94.1706 14.98327256 81780,6950.201,96.107,573.84,570.293,0.0
55283.0,STARLINK-5317,PAYLOAD,2024-07-12 13:19:01,14.98331353,0.0002607,70.0009,130.173,266.9442,93.1419,1.2743e-05,5.9e-07,0.0,0 STARLINK-5317,1 55283U 23010Q   24194.55487964  .00000059  00000-0  12743-4 0  9992,2 55283  70.0009 130.1730 0002607 266.9442  93.1419 14.98331353 82135,6950.189,96.107,573.866,570.242,0.0
55283.0,STARLINK-5317,PAYLOAD,2024-07-12 22:55:49,14.98331453,0.0002695,70.0007,129.1634,272.3073,87.7777,3.8522e-05,3.67e-06,0.0,0 STARLINK-5317,1 55283U 23010Q   24194.95543850  .00000367  00000-0  38522-4 0  9998,2 55283  70.0007 129.1634 0002695 272.3073  87.7777 14.98331453 82195,6950.188,96.107,573.926,570.18,0.0
55283.0,STARLINK-5317,PAYLOAD,2024-07-13 05:20:20,14.98350764,0.0002826,70.0006,128.4902,269.0585,91.025,0.0002087,2.399e-05,0.0,0 STARLINK-5317,1 55283U 23010Q   24195.22246087  .00002399  00000-0  20870-3 0  9994,2 55283  70.0006 128.4902 0002826 269.0585  91.0250 14.98350764 81932,6950.129,96.106,573.958,570.03,0.0
55283.0,STARLINK-5317,PAYLOAD,2024-07-13 13:20:57,14.98379552,0.00028,70.0001,127.6469,267.0008,93.083,0.00056582,6.673e-05,0.0,0 STARLINK-5317,1 55283U 23010Q   24195.55622598  .00006673  00000-0  56582-3 0  9993,2 55283  70.0001 127.6469 0002800 267.0008  93.0830 14.98379552 81983,6950.04,96.104,573.851,569.959,0.0
55283.0,STARLINK-5317,PAYLOAD,2024-07-13 21:21:42,14.98319733,0.0003108,70.0,126.8058,273.0282,87.0521,-0.00014585,-1.832e-05,0.0,0 STARLINK-5317,1 55283U 23010Q   24195.89007444 -.00001832  00000-0 -14585-3 0  9998,2 55283  70.0000 126.8058 0003108 273.0282  87.0521 14.98319733 82032,6950.225,96.108,574.25,569.93,0.0
55283.0,STARLINK-5317,PAYLOAD,2024-07-13 22:57:50,14.98318144,0.0003083,70.0003,126.6378,275.8416,84.2392,-0.0001542,-1.932e-05,0.0,0 STARLINK-5317,1 55283U 23010Q   24195.95683544 -.00001932  00000-0 -15420-3 0  9996,2 55283  70.0003 126.6378 0003083 275.8416  84.2392 14.98318144 82343,6950.23,96.108,574.237,569.952,0.0
55283.0,STARLINK-5317,PAYLOAD,2024-07-14 05:22:22,14.98323392,0.0002931,70.0005,125.9645,273.8901,86.1923,-9.2602e-05,-1.198e-05,0.0,0 STARLINK-5317,1 55283U 23010Q   24196.22387184 -.00001198  00000-0 -92602-4 0  9990,2 55283  70.0005 125.9645 0002931 273.8901  86.1923 14.98323392 82085,6950.213,96.107,574.115,570.041,0.0
55283.0,STARLINK-5317,PAYLOAD,2024-07-14 22:59:51,14.98317995,0.0003017,70.0009,124.1137,272.7414,87.34,-0.00012632,-1.599e-05,0.0,0 STARLINK-5317,1 55283U 23010Q   24196.95823779 -.00001599  00000-0 -12632-3 0  9994,2 55283  70.0009 124.1137 0003017 272.7414  87.3400 14.98317995 82499,6950.23,96.108,574.192,569.998,0.0
55283.0,STARLINK-5317,PAYLOAD,2024-07-15 05:24:23,14.98324928,0.0002833,70.001,123.4405,272.8261,87.2573,-9.3464e-05,-1.208e-05,0.0,0 STARLINK-5317,1 55283U 23010Q   24197.22527421 -.00001208  00000-0 -93464-4 0  9990,2 55283  70.0010 123.4405 0002833 272.8261  87.2573 14.98324928 82233,6950.209,96.107,574.043,570.105,0.0
55283.0,STARLINK-5317,PAYLOAD,2024-07-15 11:48:55,14.98330347,0.0002844,70.0011,122.7672,273.3319,86.7515,-0.00017006,-2.121e-05,0.0,0 STARLINK-5317,1 55283U 23010Q   24197.49231304 -.00002121  00000-0 -17006-3 0  9993,2 55283  70.0011 122.7672 0002844 273.3319  86.7515 14.98330347 82573,6950.192,96.107,574.033,570.08,0.0
55283.0,STARLINK-5317,PAYLOAD,2024-07-15 21:25:44,14.98308377,0.0004178,70.0007,121.7573,265.3647,94.7035,0.0001827,2.086e-05,0.0,0 STARLINK-5317,1 55283U 23010Q   24197.89287066  .00002086  00000-0  18270-3 0  9995,2 55283  70.0007 121.7573 0004178 265.3647  94.7035 14.98308377 82635,6950.26,96.108,575.029,569.221,0.0
55283.0,STARLINK-5317,PAYLOAD,2024-07-16 05:26:23,14.98321954,0.0002869,70.0009,120.916,274.069,86.0141,0.00022444,2.585e-05,0.0,0 STARLINK-5317,1 55283U 23010Q   24198.22666645  .00002585  00000-0  22444-3 0  9999,2 55283  70.0009 120.9160 0002869 274.0690  86.0141 14.98321954 82380,6950.218,96.108,574.077,570.089,0.0
55283.0,STARLINK-5317,PAYLOAD,2024-07-16 21:27:44,14.98325237,0.0002785,70.001,119.2334,269.6074,90.4765,0.00017419,1.986e-05,0.0,0 STARLINK-5317,1 55283U 23010Q   24198.89426954  .00001986  00000-0  17419-3 0  9999,2 55283  70.0010 119.2334 0002785 269.6074  90.4765 14.98325237 82782,6950.208,96.107,574.008,570.137,0.0
55283.0,STARLINK-5317,PAYLOAD,2024-07-17 05:28:24,14.98335589,0.0002748,70.001,118.3918,269.0861,90.9983,0.00028293,3.285e-05,0.0,0 STARLINK-5317,1 55283U 23010Q   24199.22806206  .00003285  00000-0  28293-3 0  9995,2 55283  70.0010 118.3918 0002748 269.0861  90.9983 14.98335589 82538,6950.176,96.107,573.951,570.131,0.0
55283.0,STARLINK-5317,PAYLOAD,2024-07-17 11:52:59,14.98316652,0.0001249,70.0009,117.7184,287.2931,72.8091,3.9378e-05,3.77e-06,0.0,0 STARLINK-5317,1 55283U 23010Q   24199.49512835  .00000377  00000-0  39378-4 0  9992,2 55283  70.0009 117.7184 0001249 287.2931  72.8091 14.98316652 82572,6950.234,96.108,572.967,571.231,0.0
55283.0,STARLINK-5317,PAYLOAD,2024-07-17 21:29:47,14.98317382,0.0002926,70.0011,116.7088,268.7252,91.3571,-2.6248e-05,-4.06e-06,0.0,0 STARLINK-5317,1 55283U 23010Q   24199.89568505 -.00000406  00000-0 -26248-4 0  9998,2 55283  70.0011 116.7088 0002926 268.7252  91.3571 14.98317382 82930,6950.232,96.108,574.131,570.063,0.0
55283.0,STARLINK-5317,PAYLOAD,2024-07-18 03:54:18,14.98327098,0.0003027,70.0007,116.0358,267.2867,92.7946,5.0101e-05,5.05e-06,0.0,0 STARLINK-5317,1 55283U 23010Q   24200.16271940  .00000505  00000-0  50101-4 0  9998,2 55283  70.0007 116.0358 0003027 267.2867  92.7946 14.98327098 82674,6950.202,96.107,574.171,569.963,0.0
55283.0,STARLINK-5317,PAYLOAD,2024-07-18 11:54:59,14.98327536,0.0003167,70.0021,115.1932,271.922,88.1576,-1.1963e-05,-2.36e-06,0.0,0 STARLINK-5317,1 55283U 23010Q   24200.49651725 -.00000236  00000-0 -11963-4 0  9993,2 55283  70.0021 115.1932 0003167 271.9220  88.1576 14.98327536 83023,6950.201,96.107,574.267,569.864,0.0
